NORAD_CAT_ID,OBJECT_NAME,OBJECT_TYPE,EPOCH,MEAN_MOTION,ECCENTRICITY,INCLINATION,RA_OF_ASC_NODE,ARG_OF_PERICENTER,MEAN_ANOMALY,BSTAR,MEAN_MOTION_DOT,MEAN_MOTION_DDOT,TLE_LINE0,TLE_LINE1,TLE_LINE2,SEMIMAJOR_AXIS,PERIOD,APOGEE,PERIGEE,DECAYED
49422.0,STARLINK-3161,PAYLOAD,2022-09-30 20:26:26,15.08832407,0.0001847,53.2164,106.8072,52.9042,307.2119,1.513e-05,-4.7e-07,0.0,0 STARLINK-3161,1 49422U 21104Q   22273.85169046 -.00000047  00000-0  15130-4 0  9990,2 49422  53.2164 106.8072 0001847  52.9042 307.2119 15.08832407 49037,6917.904,95.438,541.0459999999998,538.491,0.0
49422.0,STARLINK-3161,PAYLOAD,2022-10-01 01:12:35,15.08836907,0.0001834,53.2165,105.9152,53.2665,306.8496,6.6939e-06,-1.82e-06,0.0,0 STARLINK-3161,1 49422U 21104Q   22274.05040918 -.00000182  00000-0  66939-5 0  9993,2 49422  53.2165 105.9152 0001834  53.2665 306.8496 15.08836907 50166,6917.89,95.438,541.024,538.486,0.0
49422.0,STARLINK-3161,PAYLOAD,2022-10-01 12:20:18,15.08814444,0.0001903,53.2165,103.8336,57.1189,302.9986,0.00055607,8.567e-05,0.0,0 STARLINK-3161,1 49422U 21104Q   22274.51409906  .00008567  00000-0  55607-3 0  9992,2 49422  53.2165 103.8336 0001903  57.1189 302.9986 15.08814444 50239,6917.959,95.439,541.14,538.507,0.0
49422.0,STARLINK-3161,PAYLOAD,2022-10-01 13:55:40,15.08837823,0.0001785,53.2165,103.5361,52.4388,307.6766,0.00020898,3.039e-05,0.0,0 STARLINK-3161,1 49422U 21104Q   22274.58032912  .00003039  00000-0  20898-3 0  9991,2 49422  53.2165 103.5361 0001785  52.4388 307.6766 15.08837823 49143,6917.887,95.438,540.987,538.5169999999998,0.0
49422.0,STARLINK-3161,PAYLOAD,2022-10-01 18:41:50,15.08840424,0.0001818,53.2158,102.6439,52.0275,308.0881,0.00042285,6.448e-05,0.0,0 STARLINK-3161,1 49422U 21104Q   22274.77905336  .00006448  00000-0  42285-3 0  9992,2 49422  53.2158 102.6439 0001818  52.0275 308.0881 15.08840424 50279,6917.879,95.438,541.002,538.486,0.0
49422.0,STARLINK-3161,PAYLOAD,2022-10-01 20:17:13,15.08842967,0.000182,53.2158,102.3466,51.9989,308.1167,0.00046154,7.066e-05,0.0,0 STARLINK-3161,1 49422U 21104Q   22274.84529329  .00007066  00000-0  46154-3 0  9990,2 49422  53.2158 102.3466 0001820  51.9989 308.1167 15.08842967 49189,6917.871,95.437,540.995,538.477,0.0
49422.0,STARLINK-3161,PAYLOAD,2022-10-02 12:11:04,15.08847107,0.0001773,53.2152,99.3728,51.9311,308.1841,0.00016553,2.348e-05,0.0,0 STARLINK-3161,1 49422U 21104Q   22275.50768961  .00002348  00000-0  16553-3 0  9999,2 49422  53.2152  99.3728 0001773  51.9311 308.1841 15.08847107 49286,6917.859,95.437,540.95,538.497,0.0
49422.0,STARLINK-3161,PAYLOAD,2022-10-02 18:32:36,15.08850187,0.0001774999999999,53.2154,98.1834,50.0163,310.0985,0.0002791,4.158e-05,0.0,0 STARLINK-3161,1 49422U 21104Q   22275.77264867  .00004158  00000-0  27910-3 0  9994,2 49422  53.2154  98.1834 0001775  50.0163 310.0985 15.08850187 49328,6917.849,95.437,540.942,538.486,0.0
49422.0,STARLINK-3161,PAYLOAD,2022-10-03 02:29:32,15.08856661,0.0001818,53.2157,96.6966,49.9786,310.1365,0.00036919,5.595e-05,0.0,0 STARLINK-3161,1 49422U 21104Q   22276.10384558  .00005595  00000-0  36919-3 0  9997,2 49422  53.2157  96.6966 0001818  49.9786 310.1365 15.08856661 50470,6917.829000000002,95.437,540.952,538.437,0.0
49422.0,STARLINK-3161,PAYLOAD,2022-10-03 12:01:50,15.08866302,0.0001818,53.2156,94.9123,50.8995,309.2158,0.00066888,0.00010381,0.0,0 STARLINK-3161,1 49422U 21104Q   22276.50128003  .00010381  00000-0  66888-3 0  9999,2 49422  53.2156  94.9123 0001818  50.8995 309.2158 15.08866302 49434,6917.8,95.436,540.923,538.4069999999998,0.0
49422.0,STARLINK-3161,PAYLOAD,2022-10-03 19:58:46,15.08859973,0.0001764,53.2158,93.4253,48.7184,311.396,0.00047142,7.227e-05,0.0,0 STARLINK-3161,1 49422U 21104Q   22276.83247892  .00007227  00000-0  47142-3 0  9990,2 49422  53.2158  93.4253 0001764  48.7184 311.3960 15.08859973 49486,6917.819,95.436,540.905,538.464,0.0
49422.0,STARLINK-3161,PAYLOAD,2022-10-03 23:09:32,15.08859983,0.0001810999999999,53.2158,92.8306,49.4659,310.649,0.00044338,6.779e-05,0.0,0 STARLINK-3161,1 49422U 21104Q   22276.96495767  .00006779  00000-0  44338-3 0  9995,2 49422  53.2158  92.8306 0001811  49.4659 310.6490 15.08859983 50603,6917.819,95.436,540.937,538.431,0.0
49422.0,STARLINK-3161,PAYLOAD,2022-10-04 11:52:37,15.08850075,0.000177,53.216,90.4515,50.2028,309.9119,5.7987e-05,6.35e-06,0.0,0 STARLINK-3161,1 49422U 21104Q   22277.49487541  .00000635  00000-0  57987-4 0  9995,2 49422  53.2160  90.4515 0001770  50.2028 309.9119 15.08850075 49583,6917.85,95.437,540.939,538.49,0.0
49422.0,STARLINK-3161,PAYLOAD,2022-10-04 13:28:00,15.08852802,0.0001853,53.2161,90.1542,49.3656,310.7497,7.580899999999999e-05,9.19e-06,0.0,0 STARLINK-3161,1 49422U 21104Q   22277.56111421  .00000919  00000-0  75809-4 0  9992,2 49422  53.2161  90.1542 0001853  49.3656 310.7497 15.08852802 50692,6917.840999999999,95.437,540.988,538.424,0.0
49422.0,STARLINK-3161,PAYLOAD,2022-10-04 19:49:33,15.08843105,0.0001804,53.2161,88.965,48.1967,311.9179,2.2085e-05,6.3e-07,0.0,0 STARLINK-3161,1 49422U 21104Q   22277.82607845  .00000063  00000-0  22085-4 0  9999,2 49422  53.2161  88.9650 0001804  48.1967 311.9179 15.08843105 49633,6917.871,95.437,540.984,538.488,0.0
49422.0,STARLINK-3161,PAYLOAD,2022-10-04 23:00:19,15.088437,0.0001804,53.2161,88.3702,48.2264,311.8882,1.1012e-05,-1.13e-06,0.0,0 STARLINK-3161,1 49422U 21104Q   22277.95855742 -.00000113  00000-0  11012-4 0  9999,2 49422  53.2161  88.3702 0001804  48.2264 311.8882 15.08843700 50752,6917.869000000002,95.437,540.982,538.486,0.0
49422.0,STARLINK-3161,PAYLOAD,2022-10-05 13:18:47,15.08841242,0.0001805,53.217,85.694,47.4722,312.6422,-8.0529e-05,-1.57e-05,0.0,0 STARLINK-3161,1 49422U 21104Q   22278.55472034 -.00001570  00000-0 -80529-4 0  9993,2 49422  53.2170  85.6940 0001805  47.4722 312.6422 15.08841242 49742,6917.877,95.437,540.99,538.493,0.0
49422.0,STARLINK-3161,PAYLOAD,2022-10-05 19:40:20,15.08831691,0.0001771,53.2171,84.5044,53.5765,306.5391,9.9053e-05,1.288e-05,0.0,0 STARLINK-3161,1 49422U 21104Q   22278.81968167  .00001288  00000-0  99053-4 0  9995,2 49422  53.2171  84.5044 0001771  53.5765 306.5391 15.08831691 49781,6917.906,95.438,540.996,538.5459999999998,0.0
49422.0,STARLINK-3161,PAYLOAD,2022-10-06 03:37:16,15.08838644,0.0001791,53.2171,83.0175,45.507,314.6068,-4.0489e-05,-9.32e-06,0.0,0 STARLINK-3161,1 49422U 21104Q   22279.15088007 -.00000932  00000-0 -40489-4 0  9995,2 49422  53.2171  83.0175 0001791  45.5070 314.6068 15.08838644 50937,6917.885,95.438,540.989,538.511,0.0
49422.0,STARLINK-3161,PAYLOAD,2022-10-06 11:34:12,15.08832878,0.0001708,53.2171,81.5306,46.4949,313.6185,-2.6327e-05,-7.07e-06,0.0,0 STARLINK-3161,1 49422U 21104Q   22279.48208340 -.00000707  00000-0 -26327-4 0  9990,2 49422  53.2171  81.5306 0001708  46.4949 313.6185 15.08832878 49883,6917.901999999999,95.438,540.9490000000002,538.586,0.0
49422.0,STARLINK-3161,PAYLOAD,2022-10-06 17:55:44,15.08840129,0.0001745,53.2172,80.3414,43.9496,316.1635,3.3543e-05,2.46e-06,0.0,0 STARLINK-3161,1 49422U 21104Q   22279.74703789  .00000246  00000-0  33543-4 0  9990,2 49422  53.2172  80.3414 0001745  43.9496 316.1635 15.08840129 49922,6917.88,95.438,540.952,538.538,0.0
49422.0,STARLINK-3161,PAYLOAD,2022-10-07 09:49:35,15.08833558,0.000159,53.2172,77.3679,49.0502,311.0628,0.00018035,2.583e-05,0.0,0 STARLINK-3161,1 49422U 21104Q   22280.40944015  .00002583  00000-0  18035-3 0  9998,2 49422  53.2172  77.3679 0001590  49.0502 311.0628 15.08833558 50021,6917.9,95.438,540.865,538.665,0.0
49422.0,STARLINK-3161,PAYLOAD,2022-10-07 13:00:21,15.08844026,0.0001831999999999,53.2173,76.7731,43.8067,316.307,2.2025e-05,6.2e-07,0.0,0 STARLINK-3161,1 49422U 21104Q   22280.54191724  .00000062  00000-0  22025-4 0  9999,2 49422  53.2173  76.7731 0001832  43.8067 316.3070 15.08844026 50044,6917.868,95.437,541.0,538.466,0.0
49422.0,STARLINK-3161,PAYLOAD,2022-10-08 11:15:47,15.088163,0.0001738,53.2176,72.6103,44.8142,315.2990000000001,-4.2068e-05,-9.57e-06,0.0,0 STARLINK-3161,1 49422U 21104Q   22281.46930108 -.00000957  00000-0 -42068-4 0  9992,2 49422  53.2176  72.6103 0001738  44.8142 315.2990 15.08816300 50183,6917.953,95.439,541.02,538.615,0.0
49422.0,STARLINK-3161,PAYLOAD,2022-10-08 17:37:19,15.08822777,0.0001771999999999,53.2176,71.4207,43.6773,316.4359,-1.8442e-05,-5.81e-06,0.0,0 STARLINK-3161,1 49422U 21104Q   22281.73425913 -.00000581  00000-0 -18442-4 0  9997,2 49422  53.2176  71.4207 0001772  43.6773 316.4359 15.08822777 51324,6917.933000000001,95.439,541.024,538.572,0.0
49422.0,STARLINK-3161,PAYLOAD,2022-10-09 03:09:38,15.08836552,0.0001774999999999,53.2176,69.6364,45.8662,314.2476,9.1464e-06,-1.43e-06,0.0,0 STARLINK-3161,1 49422U 21104Q   22282.13169165 -.00000143  00000-0  91464-5 0  9995,2 49422  53.2176  69.6364 0001775  45.8662 314.2476 15.08836552 51389,6917.891,95.438,540.984,538.528,0.0
49422.0,STARLINK-3161,PAYLOAD,2022-10-09 09:31:10,15.08842697,0.0001813,53.2178,68.446,46.6942,313.4201,4.553e-05,4.37e-06,0.0,0 STARLINK-3161,1 49422U 21104Q   22282.39664739  .00000437  00000-0  45530-4 0  9997,2 49422  53.2178  68.4460 0001813  46.6942 313.4201 15.08842697 50325,6917.871999999999,95.437,540.991,538.4830000000002,0.0
49422.0,STARLINK-3161,PAYLOAD,2022-10-09 17:28:05,15.08850395,0.000179,53.2176,66.9604,43.6509,316.4625,0.00012869,1.761e-05,0.0,0 STARLINK-3161,1 49422U 21104Q   22282.72783893  .00001761  00000-0  12869-3 0  9996,2 49422  53.2176  66.9604 0001790  43.6509 316.4625 15.08850395 50378,6917.849,95.437,540.952,538.475,0.0
49422.0,STARLINK-3161,PAYLOAD,2022-10-10 03:00:24,15.08839405,0.0001808,53.2178,65.1753,46.7288,313.3855,0.00024164,3.5600000000000005e-05,0.0,0 STARLINK-3161,1 49422U 21104Q   22283.12528013  .00003560  00000-0  24164-3 0  9992,2 49422  53.2178  65.1753 0001808  46.7288 313.3855 15.08839405 50431,6917.882,95.438,540.998,538.496,0.0
